NORAD_CAT_ID,OBJECT_NAME,OBJECT_TYPE,EPOCH,MEAN_MOTION,ECCENTRICITY,INCLINATION,RA_OF_ASC_NODE,ARG_OF_PERICENTER,MEAN_ANOMALY,BSTAR,MEAN_MOTION_DOT,MEAN_MOTION_DDOT,TLE_LINE0,TLE_LINE1,TLE_LINE2,SEMIMAJOR_AXIS,PERIOD,APOGEE,PERIGEE,DECAYED
49438.0,STARLINK-3044,PAYLOAD,2022-10-06 16:12:23,15.08846594,0.0001934,53.2187,60.66,51.7772,308.3394,0.00011458,1.536e-05,0.0,0 STARLINK-3044,1 49438U 21104AG  22279.67527052  .00001536  00000-0  11458-3 0  9999,2 49438  53.2187  60.6600 0001934  51.7772 308.3394 15.08846594 50207,6917.86,95.437,541.063,538.387,0.0
49438.0,STARLINK-3044,PAYLOAD,2022-10-07 09:41:38,15.08840993,0.0001892,53.2183,57.3885,50.9299,309.1861,0.00014914,2.086e-05,0.0,0 STARLINK-3044,1 49438U 21104AG  22280.40391315  .00002086  00000-0  14914-3 0  9994,2 49438  53.2183  57.3885 0001892  50.9299 309.1861 15.08840993 50316,6917.877,95.437,541.0509999999998,538.433,0.0
49438.0,STARLINK-3044,PAYLOAD,2022-10-07 17:38:34,15.08839184,0.000187,53.2179,55.902,45.8845,314.23,8.729899999999999e-05,1.101e-05,0.0,0 STARLINK-3044,1 49438U 21104AG  22280.73511605  .00001101  00000-0  87299-4 0  9990,2 49438  53.2179  55.9020 0001870  45.8845 314.2300 15.08839184 50362,6917.8830000000025,95.438,541.0419999999998,538.4540000000002,0.0
49438.0,STARLINK-3044,PAYLOAD,2022-10-08 01:35:29,15.08837489,0.0001891,53.218,54.4152,45.5627,314.552,6.130899999999999e-05,6.88e-06,0.0,0 STARLINK-3044,1 49438U 21104AG  22281.06631777  .00000688  00000-0  61309-4 0  9993,2 49438  53.2180  54.4152 0001891  45.5627 314.5520 15.08837489 51489,6917.888000000001,95.438,541.061,538.445,0.0
49438.0,STARLINK-3044,PAYLOAD,2022-10-08 12:43:12,15.08828591,0.000183,53.2195,52.3333,64.4413,295.6768,-7.386e-05,-1.463e-05,0.0,0 STARLINK-3044,1 49438U 21104AG  22281.53000825 -.00001463  00000-0 -73860-4 0  9998,2 49438  53.2195  52.3333 0001830  64.4413 295.6768 15.08828591 50485,6917.915,95.438,541.0459999999998,538.514,0.0
49438.0,STARLINK-3044,PAYLOAD,2022-10-08 17:29:22,15.08832171,0.0001996999999999,53.2186,51.4411,44.437,315.6782,-5.2135e-05,-1.118e-05,0.0,0 STARLINK-3044,1 49438U 21104AG  22281.72872734 -.00001118  00000-0 -52135-4 0  9994,2 49438  53.2186  51.4411 0001997  44.4370 315.6782 15.08832171 51586,6917.904,95.438,541.151,538.388,0.0
49438.0,STARLINK-3044,PAYLOAD,2022-10-09 12:33:58,15.08844285,0.0001937,53.2192,47.8723,45.4669,314.6481,7.9434e-05,9.76e-06,0.0,0 STARLINK-3044,1 49438U 21104AG  22282.52359728  .00000976  00000-0  79434-4 0  9996,2 49438  53.2192  47.8723 0001937  45.4669 314.6481 15.08844285 50633,6917.8669999999975,95.437,541.072,538.3919999999998,0.0
49438.0,STARLINK-3044,PAYLOAD,2022-10-09 17:20:08,15.08852502,0.0001774,53.2189,46.9801,53.622,306.4935,-0.00011255,-2.08e-05,0.0,0 STARLINK-3044,1 49438U 21104AG  22282.72231557 -.00002080  00000-0 -11255-3 0  9993,2 49438  53.2189  46.9801 0001774  53.6220 306.4935 15.08852502 50666,6917.842,95.437,540.934,538.48,0.0
49438.0,STARLINK-3044,PAYLOAD,2022-10-10 12:24:45,15.08844094,0.0001966999999999,53.2186,43.4125,42.0248,318.0895,0.00025748,3.813e-05,0.0,0 STARLINK-3044,1 49438U 21104AG  22283.51719472  .00003813  00000-0  25748-3 0  9993,2 49438  53.2186  43.4125 0001967  42.0248 318.0895 15.08844094 50784,6917.868,95.437,541.094,538.372,0.0
49438.0,STARLINK-3044,PAYLOAD,2022-10-11 01:07:50,15.08845577,0.0002011,53.218,41.034,40.5527,319.5614,0.00013052,1.7899999999999998e-05,0.0,0 STARLINK-3044,1 49438U 21104AG  22284.04711629  .00001790  00000-0  13052-3 0  9995,2 49438  53.2180  41.0340 0002011  40.5527 319.5614 15.08845577 51935,6917.863,95.437,541.12,538.337,0.0
49438.0,STARLINK-3044,PAYLOAD,2022-10-11 07:29:23,15.0884691,0.000248,53.2174,39.8461,52.5213,307.6004,2.6093e-05,1.27e-06,0.0,0 STARLINK-3044,1 49438U 21104AG  22284.31207615  .00000127  00000-0  26093-4 0  9993,2 49438  53.2174  39.8461 0002480  52.5213 307.6004 15.08846910 50901,6917.859,95.437,541.44,538.009,0.0
49438.0,STARLINK-3044,PAYLOAD,2022-10-11 12:15:33,15.08832633,0.0002079,53.2175,38.9522,43.786,316.3297,-0.0001264999999999,-2.301e-05,0.0,0 STARLINK-3044,1 49438U 21104AG  22284.51080252 -.00002301  00000-0 -12650-3 0  9992,2 49438  53.2175  38.9522 0002079  43.7860 316.3297 15.08832633 52005,6917.903,95.438,541.206,538.33,0.0
49438.0,STARLINK-3044,PAYLOAD,2022-10-12 13:41:44,15.08834479,0.0002055,53.2185,34.1953,38.7535,321.3604,-6.3018e-05,-1.291e-05,0.0,0 STARLINK-3044,1 49438U 21104AG  22285.57065434 -.00001291  00000-0 -63018-4 0  9996,2 49438  53.2185  34.1953 0002055  38.7535 321.3604 15.08834479 51095,6917.897,95.438,541.184,538.341,0.0
49438.0,STARLINK-3044,PAYLOAD,2022-10-12 15:17:07,15.08837106,0.0002118,53.2187,33.8982,41.3306,318.7846,-3.3571e-05,-8.22e-06,0.0,0 STARLINK-3044,1 49438U 21104AG  22285.63689224 -.00000822  00000-0 -33571-4 0  9992,2 49438  53.2187  33.8982 0002118  41.3306 318.7846 15.08837106 51101,6917.889,95.438,541.219,538.289,0.0
49438.0,STARLINK-3044,PAYLOAD,2022-10-13 13:32:31,15.08828963,0.0002093,53.2188,29.7352,41.2238,318.8912,0.0001004,1.31e-05,0.0,0 STARLINK-3044,1 49438U 21104AG  22286.56425722  .00001310  00000-0  10040-3 0  9992,2 49438  53.2188  29.7352 0002093  41.2238 318.8912 15.08828963 51243,6917.9140000000025,95.438,541.227,538.331,0.0
49438.0,STARLINK-3044,PAYLOAD,2022-10-14 07:01:45,15.08838419,0.0002126999999999,53.2192,26.4652,38.3188,321.7955,0.00017295,2.465e-05,0.0,0 STARLINK-3044,1 49438U 21104AG  22287.29289335  .00002465  00000-0  17295-3 0  9992,2 49438  53.2192  26.4652 0002127  38.3188 321.7955 15.08838419 52422,6917.885,95.438,541.222,538.279,0.0
49438.0,STARLINK-3044,PAYLOAD,2022-10-14 11:47:55,15.08839384,0.0002096,53.2191,25.5729,37.7362,322.3776,0.00015998,2.259e-05,0.0,0 STARLINK-3044,1 49438U 21104AG  22287.49161364  .00002259  00000-0  15998-3 0  9994,2 49438  53.2191  25.5729 0002096  37.7362 322.3776 15.08839384 51382,6917.882,95.438,541.197,538.297,0.0
49438.0,STARLINK-3044,PAYLOAD,2022-10-15 11:38:42,15.08837779,0.0001915,53.2183,21.1115,37.2146,322.8979,0.00012079,1.635e-05,0.0,0 STARLINK-3044,1 49438U 21104AG  22288.48521215  .00001635  00000-0  12079-3 0  9993,2 49438  53.2183  21.1115 0001915  37.2146 322.8979 15.08837779 52600,6917.887,95.438,541.077,538.427,0.0
49438.0,STARLINK-3044,PAYLOAD,2022-10-15 14:49:28,15.08837946,0.0002075,53.2181,20.5169,32.1957,327.9161,0.00011948,1.614e-05,0.0,0 STARLINK-3044,1 49438U 21104AG  22288.61769222  .00001614  00000-0  11948-3 0  9991,2 49438  53.2181  20.5169 0002075  32.1957 327.9161 15.08837946 51550,6917.887,95.438,541.187,538.316,0.0
49438.0,STARLINK-3044,PAYLOAD,2022-10-15 22:46:24,15.08828767,0.000207,53.2182,19.0295,30.2412,329.8699,7.462300000000001e-05,8.99e-06,0.0,0 STARLINK-3044,1 49438U 21104AG  22288.94889951  .00000899  00000-0  74623-4 0  9993,2 49438  53.2182  19.0295 0002070  30.2412 329.8699 15.08828767 52676,6917.915,95.438,541.212,538.3480000000002,0.0
49438.0,STARLINK-3044,PAYLOAD,2022-10-16 13:04:53,15.08833283,0.0002108,53.2185,16.3542,25.9665,334.1432,-5.044399999999999e-05,-1.091e-05,0.0,0 STARLINK-3044,1 49438U 21104AG  22289.54506106 -.00001091  00000-0 -50444-4 0  9990,2 49438  53.2185  16.3542 0002108  25.9665 334.1432 15.08833283 51691,6917.901,95.438,541.224,538.308,0.0
49438.0,STARLINK-3044,PAYLOAD,2022-10-17 04:58:44,15.08831059,0.0002079,53.2186,13.3808,31.3512,328.7604,-2.6835e-05,-7.15e-06,0.0,0 STARLINK-3044,1 49438U 21104AG  22290.20746341 -.00000715  00000-0 -26835-4 0  9991,2 49438  53.2186  13.3808 0002079  31.3512 328.7604 15.08831059 52862,6917.908,95.438,541.211,538.3340000000002,0.0
49438.0,STARLINK-3044,PAYLOAD,2022-10-17 12:55:40,15.08837504,0.0002104,53.2187,11.8944,32.384,327.7281,2.8808000000000013e-05,1.7e-06,0.0,0 STARLINK-3044,1 49438U 21104AG  22290.53865877  .00000170  00000-0  28808-4 0  9998,2 49438  53.2187  11.8944 0002104  32.3840 327.7281 15.08837504 52918,6917.888000000001,95.438,541.2090000000002,538.297,0.0
49438.0,STARLINK-3044,PAYLOAD,2022-10-18 09:35:41,15.08824776,0.0002234999999999,53.2187,8.0288,31.9826,328.1302,-8.710399999999999e-06,-4.27e-06,0.0,0 STARLINK-3044,1 49438U 21104AG  22291.39979118 -.00000427  00000-0 -87104-5 0  9999,2 49438  53.2187   8.0288 0002235  31.9826 328.1302 15.08824776 53042,6917.927,95.439,541.3380000000002,538.246,0.0
49438.0,STARLINK-3044,PAYLOAD,2022-10-19 04:40:18,15.08838706,0.0002308,53.2189,4.4605,33.1319,326.9818,0.00010737,1.421e-05,0.0,0 STARLINK-3044,1 49438U 21104AG  22292.19466296  .00001421  00000-0  10737-3 0  9995,2 49438  53.2189   4.4605 0002308  33.1319 326.9818 15.08838706 53168,6917.884,95.438,541.346,538.153,0.0
49438.0,STARLINK-3044,PAYLOAD,2022-10-19 11:01:51,15.0883779,0.0002242,53.219,3.2710000000000004,32.0909,328.0219,3.3866e-05,2.51e-06,0.0,0 STARLINK-3044,1 49438U 21104AG  22292.45962627  .00000251  00000-0  33866-4 0  9992,2 49438  53.2190   3.2710 0002242  32.0909 328.0219 15.08837790 52130,6917.887,95.438,541.303,538.201,0.0
49438.0,STARLINK-3044,PAYLOAD,2022-10-20 10:52:38,15.08834836,0.0002283,53.2184,358.8104,31.3407,328.772,8.3858e-05,1.046e-05,0.0,0 STARLINK-3044,1 49438U 21104AG  22293.45322541  .00001046  00000-0  83858-4 0  9997,2 49438  53.2184 358.8104 0002283  31.3407 328.7720 15.08834836 53356,6917.896,95.438,541.341,538.182,0.0
49438.0,STARLINK-3044,PAYLOAD,2022-10-21 04:21:52,15.08854921,0.0002463999999999,53.2187,355.5408,31.0644,329.0493,-0.00014899,-2.660000000000001e-05,0.0,0 STARLINK-3044,1 49438U 21104AG  22294.18185972 -.00002660  00000-0 -14899-3 0  9996,2 49438  53.2187 355.5408 0002464  31.0644 329.0493 15.08854921 53461,6917.835,95.437,541.404,537.995,0.0
49438.0,STARLINK-3044,PAYLOAD,2022-10-21 10:43:25,15.08842977,0.0002311999999999,53.219,354.3506,33.14,326.9736,3.6494e-05,2.93e-06,0.0,0 STARLINK-3044,1 49438U 21104AG  22294.44682019  .00000293  00000-0  36494-4 0  9993,2 49438  53.2190 354.3506 0002312  33.1400 326.9736 15.08842977 53505,6917.871,95.437,541.336,538.137,0.0
